OBJECT_NAME,OBJECT_ID,EPOCH,MEAN_MOTION,ECCENTRICITY,INCLINATION,RA_OF_ASC_NODE,ARG_OF_PERICENTER,MEAN_ANOMALY,EPHEMERIS_TYPE,CLASSIFICATION_TYPE,NORAD_CAT_ID,ELEMENT_SET_NO,REV_AT_EPOCH,BSTAR,MEAN_MOTION_DOT,MEAN_MOTION_DDOT
GEOSCAN 3 (RS92S3),2025-155T,2026-06-09T19:52:11.104320,15.35151180,.00056232,97.4531,130.6201,184.2772,175.8424,0,U,64893,999,7972,.50679668E-3,.17236E-3,0
INNOSAT 3 (RS92S0),2025-155U,2026-06-09T17:28:10.316352,15.43302716,.00051559,97.4482,132.0480,170.2714,189.8634,0,U,64894,999,7981,.79277002E-3,.35335E-3,0
KNACKSAT-2,1998-067XZ,2026-06-09T17:25:01.274016,15.59295239,.00100765,51.6308,331.9912,182.3472,177.7476,0,U,67683,999,1911,.58121556E-3,.46495E-3,0
