GEOSCAN 3 (RS92S3)      
1 64893U 25155T   26160.82790630  .00017236  00000+0  50680-3 0  9998
2 64893  97.4531 130.6201 0005623 184.2772 175.8424 15.35151180 79727
INNOSAT 3 (RS92S0)      
1 64894U 25155U   26160.72789718  .00035335  00000+0  79277-3 0  9996
2 64894  97.4482 132.0480 0005155 170.2714 189.8634 15.43302716 79819
KNACKSAT-2              
1 67683U 98067XZ  26160.72570919  .00046495  00000+0  58122-3 0  9993
2 67683  51.6308 331.9912 0010076 182.3472 177.7476 15.59295239 19115
